ONEWEB-0320             
1 49190U 21083E   24317.63253217  .00000039  00000+0  66958-4 0  9992
2 49190  87.9087  91.1915 0001538  97.6482 262.4825 13.18685125153337
ONEWEB-0321             
1 49191U 21083F   24317.46452827  .00000075  00000+0  15235-3 0  9993
2 49191  87.9288  30.1649 0001805  93.2640 266.8699 13.20768753160048
ONEWEB-0325             
1 49194U 21083J   24317.62304649  .00000087  00000+0  18711-3 0  9997
2 49194  87.9089  91.1898 0001587  96.0299 264.1014 13.18685711153369
ONEWEB-0326             
1 49195U 21083K   24317.63727618  .00000046  00000+0  83033-4 0  9999
2 49195  87.9087  91.1823 0001729 113.3337 246.7977 13.18683759153353
ONEWEB-0327             
1 49196U 21083L   24317.63648476  .00000027  00000+0  36686-4 0  9995
2 49196  87.9089  91.2082 0001743 107.5853 252.5469 13.18684008153379
